COMMENT,ORIGINATOR,NORAD_CAT_ID,OBJECT_NAME,OBJECT_TYPE,CLASSIFICATION_TYPE,INTLDES,EPOCH,EPOCH_MICROSECONDS,MEAN_MOTION,ECCENTRICITY,INCLINATION,RA_OF_ASC_NODE,ARG_OF_PERICENTER,MEAN_ANOMALY,EPHEMERIS_TYPE,ELEMENT_SET_NO,REV_AT_EPOCH,BSTAR,MEAN_MOTION_DOT,MEAN_MOTION_DDOT,FILE,TLE_LINE0,TLE_LINE1,TLE_LINE2,OBJECT_ID,OBJECT_NUMBER,SEMIMAJOR_AXIS,PERIOD,APOGEE,PERIGEE,DECAYED
"GENERATED VIA SPACETRACK.ORG API","18 SPCS","55094","SPACEBEE-165","PAYLOAD","U","23001CP","2023-04-12 13:49:53","34528","15.17592251","0.0014222","97.4831","163.3448","224.8334","135.1752","0","999","1514","0.00089466","0.00017987","0","3886504","0 SPACEBEE-165","1 55094U 23001CP  23102.57630827  .00017987  00000-0  89466-3 0  9993","2 55094  97.4831 163.3448 0014222 224.8334 135.1752 15.17592251 15146","2023-001CP","55094","6891.257","94.887","522.923","503.321","0"
"GENERATED VIA SPACETRACK.ORG API","18 SPCS","55094","SPACEBEE-165","PAYLOAD","U","23001CP","2023-04-13 04:04:24","334176","15.17616464","0.0014276","97.4833","163.9314","222.6101","137.4026","0","999","1523","0.00092822","0.0001868","0","3886564","0 SPACEBEE-165","1 55094U 23001CP  23103.16972609  .00018680  00000-0  92822-3 0  9997","2 55094  97.4833 163.9314 0014276 222.6101 137.4026 15.17616464 15235","2023-001CP","55094","6891.184","94.886","522.886","503.211","0"
"GENERATED VIA SPACETRACK.ORG API","18 SPCS","55094","SPACEBEE-165","PAYLOAD","U","23001CP","2023-04-14 03:48:34","705728","15.17658727","0.0014337","97.4835","164.9094","218.9176","141.1027","0","999","1538","0.0010307","0.00020781","0","3887333","0 SPACEBEE-165","1 55094U 23001CP  23104.15873502  .00020781  00000-0  10307-2 0  9991","2 55094  97.4835 164.9094 0014337 218.9176 141.1027 15.17658727 15388","2023-001CP","55094","6891.056","94.883","522.800","503.041","0"
"GENERATED VIA SPACETRACK.ORG API","18 SPCS","55094","SPACEBEE-165","PAYLOAD","U","23001CP","2023-04-15 03:32:42","641664","15.1770469","0.0014411","97.4833","165.887","215.4728","144.5548","0","999","1553","0.0011495","0.00023223","0","3887974","0 SPACEBEE-165","1 55094U 23001CP  23105.14771576  .00023223  00000-0  11495-2 0  9992","2 55094  97.4833 165.8870 0014411 215.4728 144.5548 15.17704690 15539","2023-001CP","55094","6890.917","94.880","522.712","502.851","0"
"GENERATED VIA SPACETRACK.ORG API","18 SPCS","55094","SPACEBEE-165","PAYLOAD","U","23001CP","2023-04-15 17:47:10","118976","15.17733623","0.00145","97.4831","166.4734","213.4064","146.6256","0","999","1562","0.001181","0.00023884","0","3888171","0 SPACEBEE-165","1 55094U 23001CP  23105.74108934  .00023884  00000-0  11810-2 0  9994","2 55094  97.4831 166.4734 0014500 213.4064 146.6256 15.17733623 15620","2023-001CP","55094","6890.829","94.878","522.686","502.702","0"
"GENERATED VIA SPACETRACK.ORG API","18 SPCS","55094","SPACEBEE-165","PAYLOAD","U","23001CP","2023-04-16 03:16:47","847360","15.17754504","0.00145","97.483","166.8641","212.4809","147.5533","0","999","1568","0.0012367","0.00025032","0","3888626","0 SPACEBEE-165","1 55094U 23001CP  23106.13666490  .00025032  00000-0  12367-2 0  9999","2 55094  97.4830 166.8641 0014500 212.4809 147.5533 15.17754504 15681","2023-001CP","55094","6890.766","94.877","522.622","502.639","0"
"GENERATED VIA SPACETRACK.ORG API","18 SPCS","55094","SPACEBEE-165","PAYLOAD","U","23001CP","2023-04-16 17:31:13","615680","15.17784379","0.0014574","97.483","167.4505","210.3807","149.6583","0","999","1577","0.0012264","0.00024845","0","3888799","0 SPACEBEE-165","1 55094U 23001CP  23106.73001870  .00024845  00000-0  12264-2 0  9997","2 55094  97.4830 167.4505 0014574 210.3807 149.6583 15.17784379 15774","2023-001CP","55094","6890.675","94.875","522.583","502.498","0"
"GENERATED VIA SPACETRACK.ORG API","18 SPCS","55094","SPACEBEE-165","PAYLOAD","U","23001CP","2023-04-17 03:00:50","239008","15.17804416","0.0014553","97.483","167.8417","209.5265","150.5148","0","999","1583","0.0012807","0.00025966","0","3888997","0 SPACEBEE-165","1 55094U 23001CP  23107.12558147  .00025966  00000-0  12807-2 0  9993","2 55094  97.4830 167.8417 0014553 209.5265 150.5148 15.17804416 15835","2023-001CP","55094","6890.615","94.874","522.508","502.452","0"
"GENERATED VIA SPACETRACK.ORG API","18 SPCS","55094","SPACEBEE-165","PAYLOAD","U","23001CP","2023-04-17 03:00:50","239008","15.17804416","0.0014553","97.483","167.8417","209.5265","150.5148","0","999","1583","0.0012807","0.00025966","0","3889215","0 SPACEBEE-165","1 55094U 23001CP  23107.12558147  .00025966  00000-0  12807-2 0  9993","2 55094  97.4830 167.8417 0014553 209.5265 150.5148 15.17804416 15835","2023-001CP","55094","6890.615","94.874","522.508","502.452","0"
"GENERATED VIA SPACETRACK.ORG API","18 SPCS","55094","SPACEBEE-165","PAYLOAD","U","23001CP","2023-04-17 17:15:14","297472","15.17835489","0.0014618","97.483","168.4281","207.2845","152.7623","0","999","1592","0.0012785","0.00025945","0","3889391","0 SPACEBEE-165","1 55094U 23001CP  23107.71891548  .00025945  00000-0  12785-2 0  9995","2 55094  97.4830 168.4281 0014618 207.2845 152.7623 15.17835489 15928","2023-001CP","55094","6890.521","94.872","522.458","502.313","0"
"GENERATED VIA SPACETRACK.ORG API","18 SPCS","55094","SPACEBEE-165","PAYLOAD","U","23001CP","2023-04-18 02:44:49","801920","15.17855936","0.0014567","97.4825","168.8198","205.7308","154.3202","0","999","1598","0.001304","0.00026481","0","3889684","0 SPACEBEE-165","1 55094U 23001CP  23108.11446530  .00026481  00000-0  13040-2 0  9998","2 55094  97.4825 168.8198 0014567 205.7308 154.3202 15.17855936 15989","2023-001CP","55094","6890.459","94.871","522.361","502.286","0"
"GENERATED VIA SPACETRACK.ORG API","18 SPCS","55094","SPACEBEE-165","PAYLOAD","U","23001CP","2023-04-18 15:24:16","462080","15.17880315","0.0014675","97.4826","169.3409","203.7804","156.2753","0","999","1606","0.0011747","0.00023858","0","3889817","0 SPACEBEE-165","1 55094U 23001CP  23108.64185720  .00023858  00000-0  11747-2 0  9994","2 55094  97.4826 169.3409 0014675 203.7804 156.2753 15.17880315 16061","2023-001CP","55094","6890.385","94.869","522.362","502.138","0"
"GENERATED VIA SPACETRACK.ORG API","18 SPCS","55094","SPACEBEE-165","PAYLOAD","U","23001CP","2023-04-18 16:59:12","248160","15.17885072","0.0014641","97.4827","169.4064","203.5664","156.49","0","999","1607","0.0013082","0.0002659","0","3889987","0 SPACEBEE-165","1 55094U 23001CP  23108.70778065  .00026590  00000-0  13082-2 0  9991","2 55094  97.4827 169.4064 0014641 203.5664 156.4900 15.17885072 16077","2023-001CP","55094","6890.371","94.869","522.324","502.147","0"
"GENERATED VIA SPACETRACK.ORG API","18 SPCS","55094","SPACEBEE-165","PAYLOAD","U","23001CP","2023-04-19 04:03:42","354144","15.17907659","0.0014647","97.4825","169.8627","202.0314","158.0292","0","999","1614","0.0013202","0.00026853","0","3890383","0 SPACEBEE-165","1 55094U 23001CP  23109.16924021  .00026853  00000-0  13202-2 0  9993","2 55094  97.4825 169.8627 0014647 202.0314 158.0292 15.17907659 16142","2023-001CP","55094","6890.302","94.867","522.259","502.075","0"
"GENERATED VIA SPACETRACK.ORG API","18 SPCS","55094","SPACEBEE-165","PAYLOAD","U","23001CP","2023-04-19 18:18:03","25728","15.17937362","0.0014768","97.4823","170.4492","199.7883","160.278","0","999","1623","0.0013114","0.00026697","0","3890520","0 SPACEBEE-165","1 55094U 23001CP  23109.76253502  .00026697  00000-0  13114-2 0  9996","2 55094  97.4823 170.4492 0014768 199.7883 160.2780 15.17937362 16236","2023-001CP","55094","6890.212","94.866","522.253","501.902","0"
"GENERATED VIA SPACETRACK.ORG API","18 SPCS","55094","SPACEBEE-165","PAYLOAD","U","23001CP","2023-04-20 02:12:40","756032","15.17949729","0.0014797","97.4824","170.775","198.4164","161.6535","0","999","1628","0.0010423","0.00021197","0","3890803","0 SPACEBEE-165","1 55094U 23001CP  23110.09213838  .00021197  00000-0  10423-2 0  9992","2 55094  97.4824 170.7750 0014797 198.4164 161.6535 15.17949729 16285","2023-001CP","55094","6890.175","94.865","522.235","501.845","0"
"GENERATED VIA SPACETRACK.ORG API","18 SPCS","55094","SPACEBEE-165","PAYLOAD","U","23001CP","2023-04-20 03:47:36","276000","15.17952678","0.0014799","97.4823","170.8402","198.157","161.9137","0","999","1629","0.0010201","0.00020744","0","3890827","0 SPACEBEE-165","1 55094U 23001CP  23110.15805875  .00020744  00000-0  10201-2 0  9998","2 55094  97.4823 170.8402 0014799 198.1570 161.9137 15.17952678 16298","2023-001CP","55094","6890.166","94.865","522.228","501.834","0"
"GENERATED VIA SPACETRACK.ORG API","18 SPCS","55094","SPACEBEE-165","PAYLOAD","U","23001CP","2023-04-20 18:01:55","446816","15.17977717","0.0014916","97.4819","171.4268","196.0684","164.0078","0","999","1638","0.00097321","0.000198","0","3891109","0 SPACEBEE-165","1 55094U 23001CP  23110.75133619  .00019800  00000-0  97321-3 0  9994","2 55094  97.4819 171.4268 0014916 196.0684 164.0078 15.17977717 16383","2023-001CP","55094","6890.090","94.863","522.233","501.678","0"
"GENERATED VIA SPACETRACK.ORG API","18 SPCS","55094","SPACEBEE-165","PAYLOAD","U","23001CP","2023-04-21 09:51:09","134496","15.18001824","0.0015036","97.4816","172.0785","194.2759","165.8052","0","999","1648","0.00091303","0.00018582","0","3891495","0 SPACEBEE-165","1 55094U 23001CP  23111.41052239  .00018582  00000-0  91303-3 0  9996","2 55094  97.4816 172.0785 0015036 194.2759 165.8052 15.18001824 16488","2023-001CP","55094","6890.017","94.862","522.242","501.522","0"
"GENERATED VIA SPACETRACK.ORG API","18 SPCS","55094","SPACEBEE-165","PAYLOAD","U","23001CP","2023-04-21 09:51:09","134496","15.18001824","0.0015036","97.4816","172.0785","194.2759","165.8052","0","999","1648","0.00091303","0.00018582","0","3891529","0 SPACEBEE-165","1 55094U 23001CP  23111.41052239  .00018582  00000-0  91303-3 0  9996","2 55094  97.4816 172.0785 0015036 194.2759 165.8052 15.18001824 16488","2023-001CP","55094","6890.017","94.862","522.242","501.522","0"
